[{"OBJECT_NAME":"CALSPHERE 1","OBJECT_ID":"1964-063C","EPOCH":"2026-04-05T04:17:24.533088","MEAN_MOTION":13.76535489,"ECCENTRICITY":0.00264333,"INCLINATION":90.2192,"RA_OF_ASC_NODE":70.0576,"ARG_OF_PERICENTER":148.0911,"MEAN_ANOMALY":230.5597,"EPHEMERIS_TYPE":0,"CLASSIFICATION_TYPE":"U","NORAD_CAT_ID":900,"ELEMENT_SET_NO":999,"REV_AT_EPOCH":6138,"BSTAR":0.00087203227,"MEAN_MOTION_DOT":8.65e-6,"MEAN_MOTION_DDOT":0},{"OBJECT_NAME":"CALSPHERE 2","OBJECT_ID":"1964-063E","EPOCH":"2026-04-04T23:01:00.890112","MEAN_MOTION":13.52894434,"ECCENTRICITY":0.00206364,"INCLINATION":90.231,"RA_OF_ASC_NODE":74.0452,"ARG_OF_PERICENTER":80.9555,"MEAN_ANOMALY":339.7407,"EPHEMERIS_TYPE":0,"CLASSIFICATION_TYPE":"U","NORAD_CAT_ID":902,"ELEMENT_SET_NO":999,"REV_AT_EPOCH":84636,"BSTAR":4.2221817e-5,"MEAN_MOTION_DOT":3.7e-7,"MEAN_MOTION_DDOT":0},{"OBJECT_NAME":"LCS 1","OBJECT_ID":"1965-034C","EPOCH":"2026-04-05T03:57:15.205248","MEAN_MOTION":9.89309938,"ECCENTRICITY":0.00133306,"INCLINATION":32.1468,"RA_OF_ASC_NODE":350.4066,"ARG_OF_PERICENTER":223.6116,"MEAN_ANOMALY":136.3328,"EPHEMERIS_TYPE":0,"CLASSIFICATION_TYPE":"U","NORAD_CAT_ID":1361,"ELEMENT_SET_NO":999,"REV_AT_EPOCH":20265,"BSTAR":0.00033345148,"MEAN_MOTION_DOT":1.1e-7,"MEAN_MOTION_DDOT":0},{"OBJECT_NAME":"TEMPSAT 1","OBJECT_ID":"1965-065E","EPOCH":"2026-04-05T02:02:04.164288","MEAN_MOTION":13.33590801,"ECCENTRICITY":0.00715674,"INCLINATION":89.9987,"RA_OF_ASC_NODE":212.5807,"ARG_OF_PERICENTER":94.0691,"MEAN_ANOMALY":93.0071,"EPHEMERIS_TYPE":0,"CLASSIFICATION_TYPE":"U","NORAD_CAT_ID":1512,"ELEMENT_SET_NO":999,"REV_AT_EPOCH":95030,"BSTAR":8.1692281e-5,"MEAN_MOTION_DOT":5.1e-7,"MEAN_MOTION_DDOT":0},{"OBJECT_NAME":"CALSPHERE 4A","OBJECT_ID":"1965-065H","EPOCH":"2026-04-04T23:56:25.797984","MEAN_MOTION":13.36264541,"ECCENTRICITY":0.00679786,"INCLINATION":89.8983,"RA_OF_ASC_NODE":123.2173,"ARG_OF_PERICENTER":311.2869,"MEAN_ANOMALY":132.3464,"EPHEMERIS_TYPE":0,"CLASSIFICATION_TYPE":"U","NORAD_CAT_ID":1520,"ELEMENT_SET_NO":999,"REV_AT_EPOCH":95293,"BSTAR":0.00020029721,"MEAN_MOTION_DOT":1.13e-6,"MEAN_MOTION_DDOT":0},{"OBJECT_NAME":"OPS 5712 (P/L 160)","OBJECT_ID":"1967-053A","EPOCH":"2026-04-05T07:46:12.379296","MEAN_MOTION":14.76761188,"ECCENTRICITY":0.00025887,"INCLINATION":69.9177,"RA_OF_ASC_NODE":216.7398,"ARG_OF_PERICENTER":222.858,"MEAN_ANOMALY":137.2366,"EPHEMERIS_TYPE":0,"CLASSIFICATION_TYPE":"U","NORAD_CAT_ID":2826,"ELEMENT_SET_NO":999,"REV_AT_EPOCH":5547,"BSTAR":0.001806643,"MEAN_MOTION_DOT":0.00012629,"MEAN_MOTION_DDOT":0},{"OBJECT_NAME":"OPS 5712 (P/L 153)","OBJECT_ID":"1967-053H","EPOCH":"2026-04-05T05:23:45.384576","MEAN_MOTION":13.9681752,"ECCENTRICITY":0.00098966,"INCLINATION":69.9723,"RA_OF_ASC_NODE":271.6933,"ARG_OF_PERICENTER":284.6238,"MEAN_ANOMALY":75.377,"EPHEMERIS_TYPE":0,"CLASSIFICATION_TYPE":"U","NORAD_CAT_ID":2874,"ELEMENT_SET_NO":999,"REV_AT_EPOCH":99659,"BSTAR":7.1275576e-5,"MEAN_MOTION_DOT":4.6e-7,"MEAN_MOTION_DDOT":0},{"OBJECT_NAME":"RIGIDSPHERE 2 (LCS 4)","OBJECT_ID":"1971-067E","EPOCH":"2026-04-05T04:30:35.186400","MEAN_MOTION":14.37785895,"ECCENTRICITY":0.00619724,"INCLINATION":87.6277,"RA_OF_ASC_NODE":359.0713,"ARG_OF_PERICENTER":113.9868,"MEAN_ANOMALY":246.7836,"EPHEMERIS_TYPE":0,"CLASSIFICATION_TYPE":"U","NORAD_CAT_ID":5398,"ELEMENT_SET_NO":999,"REV_AT_EPOCH":86339,"BSTAR":0.00034139598,"MEAN_MOTION_DOT":1.069e-5,"MEAN_MOTION_DDOT":0},{"OBJECT_NAME":"COSMOS 2493 (SKRL-756 1)","OBJECT_ID":"2013-078A","EPOCH":"2026-04-05T04:50:09.455712","MEAN_MOTION":15.01783166,"ECCENTRICITY":0.00141067,"INCLINATION":82.4139,"RA_OF_ASC_NODE":332.5813,"ARG_OF_PERICENTER":126.4383,"MEAN_ANOMALY":233.8145,"EPHEMERIS_TYPE":0,"CLASSIFICATION_TYPE":"U","NORAD_CAT_ID":39490,"ELEMENT_SET_NO":999,"REV_AT_EPOCH":66700,"BSTAR":0.00038151261,"MEAN_MOTION_DOT":5.006e-5,"MEAN_MOTION_DDOT":0},{"OBJECT_NAME":"COSMOS 2494 (SKRL-756 2)","OBJECT_ID":"2013-078B","EPOCH":"2026-04-05T04:42:33.935040","MEAN_MOTION":15.04436718,"ECCENTRICITY":0.00177245,"INCLINATION":82.4123,"RA_OF_ASC_NODE":322.2794,"ARG_OF_PERICENTER":92.9036,"MEAN_ANOMALY":267.4219,"EPHEMERIS_TYPE":0,"CLASSIFICATION_TYPE":"U","NORAD_CAT_ID":39491,"ELEMENT_SET_NO":999,"REV_AT_EPOCH":66783,"BSTAR":0.00030900877,"MEAN_MOTION_DOT":4.36e-5,"MEAN_MOTION_DDOT":0}]
